      2.10          N: GNSS NAV DATA                        RINEX VERSION / TYPE
fic2rin                                 01/09/2019 00:32:46 PGM / RUN BY / DATE
                                                            END OF HEADER
26 19  1  7  6  0  0.0 8.944422006607e-05 1.068656274583e-11 0.000000000000e+00
    3.900000000000e+01 1.207500000000e+02 4.410898017322e-09-8.606471422995e-01
    6.156042218208e-06 3.497304278426e-03 9.344890713692e-06 5.153782882690e+03
    1.080000000000e+05 1.862645149231e-08-2.595600748595e+00-8.381903171539e-08
    9.535511183630e-01 1.918437500000e+02 7.981466137816e-02-7.958188633357e-09
    1.150047904111e-10 1.000000000000e+00 2.035000000000e+03 0.000000000000e+00
    2.400000000000e+00 0.000000000000e+00 7.450580596924e-09 3.900000000000e+01
    1.008060000000e+05 4.000000000000e+00
27 19  1  7  6  0  0.0-4.479009658098e-05-6.366462912410e-12 0.000000000000e+00
    8.400000000000e+01 4.178125000000e+01 4.442685055665e-09-2.693695453514e+00
    2.052634954453e-06 6.410827510990e-03 1.005828380585e-06 5.153701372147e+03
    1.080000000000e+05-8.754432201385e-08-1.528580330706e+00-1.396983861923e-07
    9.780246757506e-01 3.712500000000e+02 4.257064678346e-01-8.231771457751e-09
    1.646497154644e-10 1.000000000000e+00 2.035000000000e+03 0.000000000000e+00
    2.400000000000e+00 0.000000000000e+00 1.862645149231e-09 8.400000000000e+01
    1.008060000000e+05 4.000000000000e+00
29 19  1  7  6  0  0.0 2.987836487591e-04-8.299139153678e-12 0.000000000000e+00
    1.150000000000e+02 1.537500000000e+01 4.383396871789e-09-1.994109140273e+00
    8.735805749893e-07 6.250911392272e-04 5.215406417847e-07 5.153578262329e+03
    1.080000000000e+05-2.048909664154e-08-1.462274433348e+00-1.676380634308e-08
    9.848470337120e-01 3.846875000000e+02 1.533796392913e+00-8.264987127032e-09
    1.046472161195e-10 1.000000000000e+00 2.035000000000e+03 0.000000000000e+00
    3.400000000000e+00 0.000000000000e+00-1.024454832077e-08 1.150000000000e+02
    1.008060000000e+05 4.000000000000e+00
 3 19  1  7  5 59 44.0 1.754933036864e-04 2.728484105319e-12 0.000000000000e+00
    5.500000000000e+01-3.300000000000e+01 4.310536694013e-09 3.187967437583e-01
   -1.730397343636e-06 1.868049497716e-03 1.044571399689e-05 5.153609224319e+03
    1.079840000000e+05 2.793967723846e-08 5.696109543769e-01 4.097819328308e-08
    9.623175803442e-01 1.781250000000e+02 6.856099654928e-01-7.764966299157e-09
    3.807301446530e-10 1.000000000000e+00 2.035000000000e+03 0.000000000000e+00
    2.400000000000e+00 0.000000000000e+00 2.328306436539e-09 5.500000000000e+01
    1.031760000000e+05 4.000000000000e+00
11 19  1  7  5 59 44.0-6.787236779928e-04 5.115907697473e-12 0.000000000000e+00
    0.000000000000e+00-8.221875000000e+01 6.149541867388e-09 7.213169226366e-01
   -4.559755325317e-06 1.662509853486e-02 1.657754182816e-06 5.153676908493e+03
    1.079840000000e+05-1.452863216400e-07-9.141967026822e-01-2.142041921616e-07
    9.079749925515e-01 3.226250000000e+02 1.853255336781e+00-9.265743098249e-09
   -2.121516941125e-10 1.000000000000e+00 2.035000000000e+03 0.000000000000e+00
    2.400000000000e+00 0.000000000000e+00-1.210719347000e-08 0.000000000000e+00
    1.035960000000e+05 4.000000000000e+00
 3 19  1  7  7 59 44.0 1.755128614604e-04 2.728484105319e-12 0.000000000000e+00
    5.600000000000e+01-3.653125000000e+01 4.266249134972e-09 1.368540418047e+00
   -1.898035407066e-06 1.868471270427e-03 1.076422631741e-05 5.153611003876e+03
    1.151840000000e+05-1.117587089539e-08 5.695549333920e-01 7.823109626770e-08
    9.623203789064e-01 1.710625000000e+02 6.860848564967e-01-7.753894409397e-09
    4.096599211229e-10 1.000000000000e+00 2.035000000000e+03 0.000000000000e+00
    2.400000000000e+00 0.000000000000e+00 2.328306436539e-09 5.600000000000e+01
    1.080060000000e+05 4.000000000000e+00
11 19  1  7  7 59 44.0-6.786868907511e-04 5.115907697473e-12 0.000000000000e+00
    6.000000000000e+00-8.615625000000e+01 5.855601052145e-09 1.771366457986e+00
   -4.755333065987e-06 1.662608643528e-02 4.861503839493e-07 5.153681657791e+03
    1.151840000000e+05 3.147870302200e-07-9.142617454829e-01-1.378357410431e-07
    9.079754914066e-01 3.401250000000e+02 1.853393649833e+00-8.793223415908e-09
   -2.246522148093e-10 1.000000000000e+00 2.035000000000e+03 0.000000000000e+00
    2.400000000000e+00 0.000000000000e+00-1.210719347000e-08 6.000000000000e+00
    1.080060000000e+05 4.000000000000e+00
 2 19  1  7  8  0  0.0-1.065600663424e-04-1.011812855722e-11 0.000000000000e+00
    8.100000000000e+01-1.338750000000e+02 4.559118477013e-09 2.780736779523e+00
   -6.848946213722e-06 1.872195908800e-02 4.950910806656e-06 5.153635419846e+03
    1.152000000000e+05 1.639127731323e-07-5.383410584888e-01-2.514570951462e-07
    9.532869080433e-01 2.755625000000e+02-1.794872391617e+00-7.879971089568e-09
   -3.185846989029e-10 1.000000000000e+00 2.035000000000e+03 0.000000000000e+00
    2.400000000000e+00 0.000000000000e+00-2.048909664154e-08 8.100000000000e+01
    1.080060000000e+05 4.000000000000e+00
 1 19  1  7  8  0  0.0-1.412858255208e-04-6.252776074689e-12 0.000000000000e+00
    9.700000000000e+01-1.331250000000e+02 4.133743615585e-09 2.450777515852e+00
   -6.914138793945e-06 8.257895358838e-03 5.893409252167e-06 5.153667404175e+03
    1.152000000000e+05-7.078051567078e-08-4.725439728161e-01-1.303851604462e-07
    9.742274977886e-01 2.741562500000e+02 6.911187210345e-01-7.854612890440e-09
   -2.350097891010e-10 1.000000000000e+00 2.035000000000e+03 0.000000000000e+00
    2.400000000000e+00 0.000000000000e+00 5.587935447693e-09 9.700000000000e+01
    1.080060000000e+05 4.000000000000e+00
 8 19  1  7  8  0  0.0-1.282184384763e-04-1.250555214938e-12 0.000000000000e+00
    5.900000000000e+01 4.109375000000e+01 4.652693803372e-09-1.277888567794e+00
    1.931563019753e-06 4.077548161149e-03 8.512288331985e-07 5.153674619675e+03
    1.152000000000e+05-4.656612873077e-08-1.538895655741e+00-7.078051567078e-08
    9.697800293337e-01 3.693125000000e+02-3.899843768032e-01-8.424279476483e-09
    2.210806374674e-10 1.000000000000e+00 2.035000000000e+03 0.000000000000e+00
    2.400000000000e+00 0.000000000000e+00 5.122274160385e-09 5.900000000000e+01
    1.080060000000e+05 4.000000000000e+00
 5 19  1  7  8  0  0.0 7.171183824539e-07 1.136868377216e-13 0.000000000000e+00
    4.300000000000e+01-2.800000000000e+01 4.563404369823e-09-9.100093688572e-01
   -1.469627022743e-06 5.555841024034e-03 1.044757664204e-05 5.153609865189e+03
    1.152000000000e+05 9.685754776001e-08 5.446451426106e-01 6.891787052155e-08
    9.492174751751e-01 1.720937500000e+02 7.222686634918e-01-7.941045062116e-09
    3.453715289676e-10 1.000000000000e+00 2.035000000000e+03 0.000000000000e+00
    2.400000000000e+00 0.000000000000e+00-1.117587089539e-08 4.300000000000e+01
    1.080060000000e+05 4.000000000000e+00
 7 19  1  7  8  0  0.0 5.626864731312e-05-7.048583938740e-12 0.000000000000e+00
    4.900000000000e+01-1.250000000000e+01 4.590191199888e-09 1.822412250168e+00
   -6.314367055893e-07 1.213568437379e-02 9.195879101753e-06 5.153618425369e+03
    1.152000000000e+05-2.812594175339e-07 2.679354148666e+00 0.000000000000e+00
    9.567395527055e-01 2.028437500000e+02-2.479240447916e+00-7.972832100459e-09
   -6.182400378934e-10 1.000000000000e+00 2.035000000000e+03 0.000000000000e+00
    2.400000000000e+00 0.000000000000e+00-1.117587089539e-08 4.900000000000e+01
    1.080060000000e+05 4.000000000000e+00
 6 19  1  7  8  0  0.0 3.017229028046e-04-7.389644451905e-12 0.000000000000e+00
    6.900000000000e+01-1.281250000000e+02 4.223390206869e-09 2.753969972235e+00
   -6.485730409622e-06 1.309956656769e-03 5.822628736496e-06 5.153776538849e+03
    1.152000000000e+05 6.705522537231e-08-4.808364800609e-01-4.097819328308e-08
    9.738986850065e-01 2.736875000000e+02-1.217603385863e+00-7.955331371484e-09
   -2.550106222160e-10 1.000000000000e+00 2.035000000000e+03 0.000000000000e+00
    2.400000000000e+00 0.000000000000e+00 4.656612873077e-09 6.900000000000e+01
    1.080060000000e+05 4.000000000000e+00
22 19  1  7  8  0  0.0-6.170561537147e-04-8.867573342286e-12 0.000000000000e+00
    4.800000000000e+01-4.081250000000e+01 4.966992609465e-09-2.419641513541e+00
   -2.095475792885e-06 7.060700794682e-03 1.060962677002e-05 5.153617616653e+03
    1.152000000000e+05 7.078051567078e-08 5.016686748911e-01 9.499490261078e-08
    9.266917990617e-01 1.520625000000e+02-1.440103226674e+00-7.959974422028e-09
    4.243033882249e-10 1.000000000000e+00 2.035000000000e+03 0.000000000000e+00
    2.400000000000e+00 0.000000000000e+00-1.816079020500e-08 4.800000000000e+01
    1.080060000000e+05 4.000000000000e+00
30 19  1  7  8  0  0.0-3.195134922862e-05-6.025402399246e-12 0.000000000000e+00
    3.700000000000e+01-1.290625000000e+01 4.865916970687e-09 1.823389314135e+00
   -5.848705768585e-07 3.580543911085e-03 9.059906005859e-06 5.153640396118e+03
    1.152000000000e+05-6.146728992462e-08 2.709623742134e+00 5.587935447693e-09
    9.422723930159e-01 1.957187500000e+02-3.007631768987e+00-8.061050060806e-09
   -6.035965707914e-10 1.000000000000e+00 2.035000000000e+03 0.000000000000e+00
    2.400000000000e+00 0.000000000000e+00 3.725290298462e-09 3.700000000000e+01
    1.080060000000e+05 4.000000000000e+00
25 19  1  7  8  0  0.0-7.023834623396e-04-5.456968210638e-12 0.000000000000e+00
    3.800000000000e+01 1.199062500000e+02 4.029096399466e-09 8.573605081180e-01
    6.122514605522e-06 7.960966788232e-03 8.771196007729e-06 5.153778705597e+03
    1.152000000000e+05-7.636845111847e-08-2.569666528948e+00 9.313225746155e-08
    9.721548705639e-01 2.171250000000e+02 8.458807090697e-01-7.871756461682e-09
    5.107355599004e-11 1.000000000000e+00 2.035000000000e+03 0.000000000000e+00
    2.400000000000e+00 0.000000000000e+00 5.587935447693e-09 3.800000000000e+01
    1.080060000000e+05 4.000000000000e+00
